{"type":"FeatureCollection","features":[{"type":"Feature","properties":{"code":"11","name":"서울","slug":"seoul","center":[126.98223,37.55894]},"geometry":{"type":"Polygon","coordinates":[[[127.02215,37.69972],[127.0518,37.68581],[127.06339,37.69492],[127.096,37.68907],[127.09269,37.64858],[127.11126,37.64238],[127.10407,37.62165],[127.1181,37.60547],[127.10114,37.57607],[127.10493,37.55642],[127.17715,37.5812],[127.18354,37.54517],[127.16316,37.54499],[127.14578,37.52194],[127.14113,37.50546],[127.16143,37.50002],[127.14715,37.47722],[127.05346,37.42881],[127.03557,37.439],[127.03192,37.46552],[127.01506,37.45483],[126.99699,37.46718],[126.94022,37.43571],[126.9284,37.45021],[126.90663,37.4336],[126.8695,37.49433],[126.84503,37.47356],[126.81466,37.47476],[126.82327,37.48791],[126.81301,37.4964],[126.82699,37.50853],[126.82212,37.54068],[126.79442,37.53583],[126.76449,37.55528],[126.80074,37.58784],[126.79994,37.60254],[126.85363,37.57179],[126.87626,37.57819],[126.88526,37.59389],[126.89964,37.58982],[126.90481,37.64913],[126.94751,37.65919],[126.95842,37.62947],[126.97537,37.6317],[126.9922,37.67963],[127.02215,37.69972]]]}},{"type":"Feature","properties":{"code":"21","name":"부산","slug":"busan","center":[129.0516,35.1743]},"geometry":{"type":"MultiPolygon","coordinates":[[[[128.8287,35.08997],[128.83264,35.05785],[128.84579,35.05946],[128.8512,35.04204],[128.82853,34.98862],[128.81817,35.00434],[128.82723,35.01362],[128.80469,35.0239],[128.81496,35.02524],[128.81233,35.03993],[128.79084,35.05437],[128.83239,35.07131],[128.81151,35.07758],[128.8287,35.08997]]],[[[128.95929,35.05014],[128.95604,35.10644],[128.93207,35.0738],[128.93313,35.11032],[128.93019,35.09272],[128.89524,35.07891],[128.90563,35.11806],[128.89763,35.12029],[128.88416,35.07933],[128.87083,35.08865],[128.83889,35.08206],[128.82069,35.09702],[128.8417,35.10599],[128.83776,35.12399],[128.80213,35.1419],[128.79452,35.15854],[128.86739,35.16771],[128.87631,35.15168],[128.88168,35.1822],[128.87035,35.20156],[128.87899,35.20999],[128.98976,35.2317],[129.01348,35.27376],[129.0475,35.27421],[129.05836,35.29484],[129.10856,35.30458],[129.13459,35.35145],[129.11818,35.36903],[129.17614,35.3514],[129.19876,35.3665],[129.19937,35.38904],[129.21854,35.37895],[129.26552,35.38714],[129.28223,35.36532],[129.27966,35.34137],[129.30575,35.32462],[129.26198,35.31544],[129.2556,35.27484],[129.23394,35.26217],[129.25213,35.26022],[129.25343,35.24645],[129.23929,35.22118],[129.22726,35.22429],[129.2241,35.18582],[129.2009,35.17945],[129.18172,35.15483],[129.14993,35.15137],[129.13391,35.16243],[129.11812,35.15232],[129.10892,35.13284],[129.12243,35.13206],[129.12812,35.11169],[129.10945,35.09154],[129.1106,35.10067],[129.09521,35.09388],[129.09296,35.10927],[129.06551,35.10915],[129.0738,35.11677],[129.06554,35.129],[129.05607,35.11803],[129.05268,35.12571],[129.05533,35.11602],[129.02524,35.09351],[129.01567,35.05324],[129.00252,35.08623],[128.99263,35.08015],[129.00698,35.04895],[128.97278,35.05688],[128.98276,35.05142],[128.96558,35.03244],[128.95929,35.05014]]]]}},{"type":"Feature","properties":{"code":"22","name":"대구","slug":"daegu","center":[128.54821,35.81544]},"geometry":{"type":"Polygon","coordinates":[[[128.69604,36.01557],[128.72688,36.00323],[128.74621,35.97287],[128.73671,35.92957],[128.75694,35.91268],[128.76133,35.88752],[128.75075,35.85751],[128.72187,35.85695],[128.72508,35.83616],[128.70862,35.82638],[128.71752,35.80685],[128.6825,35.79013],[128.69096,35.73089],[128.624,35.7023],[128.61243,35.73852],[128.56477,35.73676],[128.5279,35.71274],[128.5318,35.68333],[128.50755,35.67286],[128.50624,35.63956],[128.44648,35.63841],[128.413,35.61656],[128.37136,35.60941],[128.40146,35.63902],[128.35823,35.68079],[128.3518,35.70402],[128.4122,35.69584],[128.43215,35.70489],[128.43182,35.7256],[128.38347,35.76009],[128.42083,35.80935],[128.47043,35.80592],[128.48276,35.81594],[128.48108,35.83013],[128.45,35.84666],[128.38351,35.85283],[128.39898,35.89993],[128.45416,35.94315],[128.47642,35.93444],[128.46838,35.89947],[128.50192,35.88693],[128.53438,35.93533],[128.52879,35.98038],[128.55333,35.96078],[128.61867,36.00641],[128.69604,36.01557]]]}},{"type":"Feature","properties":{"code":"23","name":"인천","slug":"incheon","center":[126.65476,37.46439]},"geometry":{"type":"MultiPolygon","coordinates":[[[[126.10798,37.27231],[126.11771,37.24786],[126.16575,37.23066],[126.14359,37.22248],[126.14751,37.21381],[126.11735,37.20918],[126.10252,37.22991],[126.08474,37.22185],[126.10798,37.27231]]],[[[126.48207,37.24419],[126.45881,37.22405],[126.43259,37.23247],[126.43396,37.27425],[126.4878,37.28319],[126.50184,37.25805],[126.47623,37.2535],[126.48207,37.24419]]],[[[126.50276,37.53079],[126.56486,37.51437],[126.58242,37.48919],[126.50631,37.46571],[126.44232,37.42083],[126.41886,37.42192],[126.39514,37.44606],[126.3808,37.43498],[126.36396,37.44217],[126.37161,37.44716],[126.35947,37.47343],[126.4188,37.49711],[126.47581,37.49974],[126.49425,37.50787],[126.50276,37.53079]]],[[[126.65554,37.63794],[126.75218,37.57971],[126.7937,37.58159],[126.76448,37.55537],[126.76014,37.51801],[126.74163,37.50883],[126.74241,37.48691],[126.7782,37.47179],[126.78043,37.45498],[126.76921,37.42751],[126.72145,37.38257],[126.6852,37.3867],[126.69563,37.38318],[126.66461,37.35],[126.64203,37.34708],[126.65408,37.34361],[126.58064,37.33731],[126.59626,37.34725],[126.5829,37.35484],[126.65444,37.3559],[126.60991,37.38714],[126.60406,37.42434],[126.63733,37.42117],[126.63458,37.43051],[126.6102,37.43011],[126.61867,37.44469],[126.61092,37.4543],[126.59427,37.43831],[126.60284,37.45943],[126.59092,37.46195],[126.62423,37.45768],[126.61241,37.47716],[126.595,37.47075],[126.62515,37.49238],[126.63774,37.48231],[126.62748,37.49335],[126.63947,37.50422],[126.60454,37.4959],[126.59654,37.54861],[126.607,37.55447],[126.57484,37.58835],[126.62574,37.60259],[126.65554,37.63794]]],[[[125.7089,37.67869],[125.71655,37.67441],[125.70676,37.66327],[125.68424,37.65282],[125.6781,37.67933],[125.7089,37.67869]]],[[[126.32964,37.74634],[126.31939,37.71258],[126.37898,37.68233],[126.34096,37.64409],[126.31885,37.68195],[126.26935,37.71065],[126.28758,37.71398],[126.29252,37.74469],[126.32964,37.74634]]],[[[124.77055,37.77849],[124.76531,37.7665],[124.72736,37.76098],[124.74069,37.77816],[124.77055,37.77849]]],[[[126.26638,37.81528],[126.29473,37.80175],[126.32753,37.80584],[126.33131,37.78965],[126.31496,37.77369],[126.24827,37.7656],[126.23275,37.75108],[126.20496,37.76853],[126.22322,37.80504],[126.26638,37.81528]]],[[[126.43876,37.82462],[126.50589,37.78333],[126.52642,37.74762],[126.51255,37.71699],[126.52535,37.70188],[126.51695,37.67474],[126.53228,37.66499],[126.52206,37.64615],[126.54396,37.61836],[126.52035,37.61069],[126.51508,37.59686],[126.5262,37.58664],[126.51727,37.58001],[126.50316,37.59045],[126.51292,37.59938],[126.40499,37.59393],[126.37007,37.6135],[126.37754,37.61928],[126.36571,37.63508],[126.41104,37.65205],[126.39134,37.69564],[126.35135,37.71547],[126.34951,37.78971],[126.38696,37.80706],[126.39247,37.82325],[126.43876,37.82462]]],[[[124.71609,37.8256],[124.71788,37.81384],[124.68522,37.79951],[124.68393,37.81386],[124.66251,37.82173],[124.67654,37.81981],[124.70339,37.84969],[124.72779,37.84063],[124.71609,37.8256]]],[[[124.68722,37.98049],[124.7218,37.98155],[124.74632,37.95912],[124.7079,37.94456],[124.69128,37.91659],[124.63943,37.92389],[124.60972,37.96995],[124.61682,37.97953],[124.64057,37.9687],[124.68722,37.98049]]]]}},{"type":"Feature","properties":{"code":"24","name":"광주","slug":"gwangju","center":[126.83453,35.15521]},"geometry":{"type":"Polygon","coordinates":[[[126.76338,35.25652],[126.75526,35.23436],[126.80539,35.21827],[126.87958,35.25152],[126.92937,35.25241],[126.96554,35.20336],[126.95862,35.19309],[126.96815,35.18114],[126.99997,35.18882],[127.02142,35.17304],[127.00774,35.15593],[127.0113,35.12556],[126.98921,35.10988],[126.98895,35.09499],[126.95188,35.07316],[126.9323,35.07439],[126.91801,35.09152],[126.85561,35.07836],[126.80731,35.05102],[126.79523,35.06112],[126.75674,35.05824],[126.75414,35.06685],[126.77135,35.07018],[126.73266,35.11286],[126.66747,35.10512],[126.64498,35.14656],[126.67212,35.17309],[126.6532,35.19252],[126.67712,35.19105],[126.6871,35.21521],[126.71769,35.21239],[126.73724,35.25289],[126.76338,35.25652]]]}},{"type":"Feature","properties":{"code":"25","name":"대전","slug":"daejeon","center":[127.39549,36.36007]},"geometry":{"type":"Polygon","coordinates":[[[127.39892,36.4891],[127.40746,36.45481],[127.45133,36.44925],[127.48403,36.47662],[127.47828,36.45728],[127.50446,36.4519],[127.48972,36.43413],[127.50155,36.40865],[127.52432,36.42343],[127.55968,36.39822],[127.52493,36.38751],[127.5224,36.35432],[127.50056,36.33929],[127.48997,36.23348],[127.4411,36.19479],[127.38734,36.23415],[127.38978,36.26278],[127.36292,36.26912],[127.36453,36.21981],[127.33403,36.1831],[127.31526,36.22129],[127.28184,36.2358],[127.29176,36.26468],[127.24665,36.29096],[127.25985,36.29565],[127.25977,36.32725],[127.27912,36.34482],[127.27057,36.36086],[127.28212,36.41461],[127.34101,36.43097],[127.35862,36.4559],[127.36015,36.48853],[127.38386,36.50023],[127.39892,36.4891]]]}},{"type":"Feature","properties":{"code":"26","name":"울산","slug":"ulsan","center":[129.27164,35.52428]},"geometry":{"type":"Polygon","coordinates":[[[129.15948,35.71586],[129.2071,35.72142],[129.25685,35.7007],[129.2555,35.66046],[129.29642,35.64351],[129.35356,35.67938],[129.44979,35.65107],[129.44105,35.63192],[129.46466,35.58641],[129.45267,35.57835],[129.45351,35.52808],[129.43875,35.52858],[129.43916,35.51985],[129.44994,35.52481],[129.44769,35.50896],[129.43283,35.51097],[129.44356,35.50267],[129.43212,35.49339],[129.44494,35.49212],[129.40617,35.47205],[129.40844,35.49326],[129.37665,35.53799],[129.37244,35.52361],[129.3874,35.50188],[129.3632,35.50418],[129.3911,35.47829],[129.3857,35.48485],[129.36869,35.45424],[129.33116,35.48555],[129.35979,35.44791],[129.35523,35.43826],[129.36945,35.44899],[129.37364,35.43124],[129.35276,35.42686],[129.36422,35.42481],[129.36261,35.40651],[129.34459,35.3781],[129.36085,35.35721],[129.33517,35.3559],[129.31158,35.3295],[129.27966,35.34137],[129.28223,35.36532],[129.26552,35.38714],[129.21854,35.37895],[129.20117,35.38778],[129.21907,35.40768],[129.19698,35.43889],[129.16565,35.43212],[129.12177,35.46344],[129.10527,35.49647],[129.05263,35.51447],[129.05582,35.53227],[128.99539,35.52782],[128.99659,35.54404],[128.97237,35.55712],[129.0192,35.58426],[129.02302,35.61344],[129.00606,35.62346],[129.03697,35.63246],[129.0469,35.65052],[129.08085,35.64325],[129.06715,35.67135],[129.08046,35.6959],[129.13678,35.71286],[129.14205,35.72435],[129.15948,35.71586]]]}},{"type":"Feature","properties":{"code":"29","name":"세종","slug":"sejong","center":[127.26481,36.57705]},"geometry":{"type":"Polygon","coordinates":[[[127.17206,36.73082],[127.20312,36.72615],[127.24802,36.69507],[127.30415,36.68503],[127.30509,36.66757],[127.27565,36.6398],[127.29216,36.63564],[127.3066,36.60094],[127.29956,36.58633],[127.32144,36.58378],[127.33809,36.56234],[127.37755,36.56783],[127.38388,36.54153],[127.40501,36.53731],[127.4086,36.52369],[127.39764,36.52058],[127.41056,36.49628],[127.36015,36.48853],[127.35862,36.4559],[127.32915,36.42332],[127.2508,36.40676],[127.19893,36.43988],[127.19468,36.48959],[127.17705,36.4926],[127.16999,36.50904],[127.18235,36.52144],[127.17424,36.54219],[127.19183,36.54603],[127.20775,36.57796],[127.15588,36.60601],[127.16138,36.69044],[127.14175,36.68998],[127.12773,36.70852],[127.17206,36.73082]]]}},{"type":"Feature","properties":{"code":"31","name":"경기","slug":"gyeonggi","center":[126.99445,37.49254]},"geometry":{"type":"MultiPolygon","coordinates":[[[[126.74268,37.038],[126.75668,37.05546],[126.67415,37.11716],[126.68472,37.11914],[126.67957,37.14314],[126.6603,37.13799],[126.69621,37.15105],[126.68251,37.16047],[126.64982,37.15464],[126.66109,37.16299],[126.6536,37.18104],[126.66992,37.18924],[126.64961,37.18354],[126.66087,37.22092],[126.64784,37.24402],[126.6539,37.26901],[126.63273,37.28698],[126.64648,37.27855],[126.66137,37.29138],[126.62933,37.28491],[126.6617,37.29255],[126.66175,37.27791],[126.6842,37.281],[126.67196,37.27318],[126.67962,37.2572],[126.75627,37.25431],[126.78297,37.22975],[126.79066,37.26709],[126.81122,37.26763],[126.80476,37.2937],[126.8381,37.27613],[126.8168,37.29804],[126.76764,37.29253],[126.67124,37.32904],[126.61618,37.31377],[126.57805,37.29282],[126.62429,37.26404],[126.64355,37.26767],[126.63117,37.28094],[126.64198,37.27284],[126.65278,37.19975],[126.64505,37.19225],[126.6468,37.21102],[126.62946,37.21827],[126.62605,37.2024],[126.62204,37.23619],[126.58835,37.23332],[126.6152,37.20945],[126.59536,37.19835],[126.6013,37.22146],[126.576,37.22078],[126.56241,37.19296],[126.54465,37.20599],[126.55711,37.21791],[126.54078,37.22877],[126.56929,37.23699],[126.55864,37.2668],[126.53291,37.28908],[126.56167,37.27734],[126.5772,37.29015],[126.57175,37.29777],[126.69034,37.33524],[126.68851,37.34876],[126.73097,37.38657],[126.74201,37.38257],[126.73392,37.38908],[126.74405,37.39841],[126.79157,37.39311],[126.78785,37.40776],[126.78448,37.39214],[126.749,37.40359],[126.78043,37.45498],[126.7782,37.47179],[126.74241,37.48691],[126.74163,37.50883],[126.76014,37.51801],[126.7662,37.55424],[126.79442,37.53583],[126.82212,37.54068],[126.82699,37.50853],[126.81301,37.4964],[126.82327,37.48791],[126.81466,37.47476],[126.84503,37.47356],[126.8695,37.49433],[126.90299,37.43407],[126.9284,37.45021],[126.94022,37.43571],[126.96294,37.44028],[127.00368,37.46772],[127.01451,37.45486],[127.0346,37.46417],[127.03557,37.439],[127.0657,37.42916],[127.1574,37.48909],[127.16122,37.5004],[127.13997,37.50864],[127.16316,37.54499],[127.18354,37.54517],[127.17715,37.5812],[127.10493,37.55642],[127.10114,37.57607],[127.1181,37.60547],[127.10407,37.62165],[127.11126,37.64238],[127.09269,37.64858],[127.096,37.68907],[127.06339,37.69492],[127.0518,37.68581],[127.02702,37.70112],[126.9922,37.67963],[126.97537,37.6317],[126.95842,37.62947],[126.94751,37.65919],[126.90481,37.64913],[126.89964,37.58982],[126.88526,37.59389],[126.85363,37.57179],[126.80258,37.60503],[126.7937,37.58159],[126.75218,37.57971],[126.65742,37.63795],[126.62574,37.60259],[126.59156,37.59303],[126.57795,37.60501],[126.55983,37.60114],[126.53148,37.6548],[126.54416,37.66292],[126.52683,37.67425],[126.531,37.74824],[126.518,37.77707],[126.52278,37.7901],[126.59378,37.76116],[126.6255,37.77914],[126.66262,37.7807],[126.67135,37.83478],[126.65932,37.8403],[126.67957,37.84603],[126.69213,37.86851],[126.67259,37.87012],[126.68278,37.91286],[126.666,37.91906],[126.67099,37.95518],[126.70371,37.97484],[126.73688,37.96604],[126.81684,38.00259],[126.826,38.02424],[126.85541,38.03209],[126.85253,38.0531],[126.86957,38.07777],[126.85607,38.09966],[126.86237,38.10833],[126.9047,38.13789],[126.92785,38.12731],[126.96641,38.13739],[126.94944,38.16234],[126.9656,38.1711],[126.98174,38.22735],[127.00471,38.22151],[127.0418,38.25911],[127.10321,38.28079],[127.11235,38.23814],[127.16329,38.23848],[127.15971,38.21955],[127.18924,38.18823],[127.18893,38.16182],[127.21919,38.13906],[127.28313,38.1829],[127.29799,38.1752],[127.27581,38.12418],[127.30953,38.11828],[127.32067,38.09468],[127.33696,38.08977],[127.37861,38.11843],[127.41341,38.10201],[127.43093,38.11536],[127.44517,38.09747],[127.44458,38.05726],[127.46154,38.01285],[127.50392,37.99795],[127.53988,38.00057],[127.54523,37.96773],[127.60244,37.955],[127.61658,37.92827],[127.60585,37.87649],[127.57789,37.87401],[127.5248,37.82967],[127.53735,37.81054],[127.52081,37.79254],[127.54488,37.76007],[127.50707,37.72059],[127.5566,37.72923],[127.56186,37.72007],[127.55282,37.66153],[127.53794,37.64148],[127.5594,37.6285],[127.60622,37.65079],[127.66385,37.6238],[127.7079,37.58635],[127.79408,37.58525],[127.84811,37.55033],[127.7599,37.50327],[127.76003,37.49289],[127.80048,37.47125],[127.80401,37.42885],[127.77894,37.37077],[127.75948,37.36729],[127.76832,37.30669],[127.74988,37.29716],[127.76048,37.2729],[127.74893,37.21834],[127.69548,37.14042],[127.67021,37.13611],[127.62831,37.15529],[127.63453,37.09983],[127.59511,37.08799],[127.60472,37.06878],[127.57798,37.07534],[127.55683,37.04125],[127.51826,37.0584],[127.49984,37.04764],[127.46821,37.05349],[127.44709,37.01089],[127.3927,36.99701],[127.38497,36.98364],[127.40153,36.96768],[127.37566,36.94866],[127.34963,36.95279],[127.29563,36.93129],[127.30336,36.91639],[127.2903,36.89433],[127.25313,36.92244],[127.21045,36.93054],[127.20214,36.95171],[127.14448,36.97114],[127.11154,36.97128],[127.09576,36.94237],[127.03104,36.92809],[126.99518,36.93536],[126.90971,36.9016],[126.89919,36.92993],[126.84961,36.94647],[126.82603,36.98599],[126.81295,36.98732],[126.8234,36.99127],[126.78917,36.99495],[126.77886,37.00744],[126.79763,37.01413],[126.7946,37.02648],[126.74268,37.038]],[[126.75679,37.05601],[126.77089,37.06439],[126.76164,37.06813],[126.77081,37.1016],[126.76041,37.11793],[126.8166,37.14335],[126.78174,37.15225],[126.79781,37.16233],[126.80065,37.19617],[126.7775,37.1652],[126.74717,37.16758],[126.72695,37.13873],[126.68405,37.11461],[126.75679,37.05601]],[[126.85595,37.26992],[126.87531,37.2774],[126.84391,37.26748],[126.8496,37.25702],[126.85595,37.26992]]]]}},{"type":"Feature","properties":{"code":"32","name":"강원","slug":"gangwon","center":[128.1658,37.7055]},"geometry":{"type":"MultiPolygon","coordinates":[[[[128.72544,38.02378],[128.79033,37.93365],[128.83171,37.90413],[128.83024,37.88417],[128.87918,37.82944],[129.05541,37.67542],[129.04594,37.63538],[129.11502,37.57895],[129.11473,37.53618],[129.14901,37.49756],[129.13559,37.50407],[129.12441,37.49069],[129.14488,37.4968],[129.18752,37.45591],[129.19765,37.41582],[129.25731,37.37984],[129.25082,37.36302],[129.27034,37.32159],[129.32912,37.2804],[129.32773,37.26344],[129.35666,37.23564],[129.34137,37.22595],[129.34325,37.17487],[129.36394,37.14624],[129.32483,37.14229],[129.29459,37.11437],[129.27124,37.11638],[129.22538,37.07372],[129.23801,37.03867],[129.18541,37.04172],[129.16614,37.06916],[129.09625,37.10041],[129.07042,37.08822],[129.0574,37.06505],[128.92332,37.09212],[128.89642,37.04452],[128.84687,37.05161],[128.82938,37.07846],[128.80787,37.076],[128.78028,37.09234],[128.76536,37.06403],[128.75655,37.06863],[128.76254,37.03786],[128.75376,37.02783],[128.7004,37.04083],[128.62264,37.0874],[128.6064,37.07667],[128.53813,37.08963],[128.49658,37.12576],[128.47781,37.11015],[128.4247,37.10246],[128.3841,37.15798],[128.33709,37.15785],[128.29624,37.1341],[128.26444,37.16042],[128.29807,37.17166],[128.29562,37.18329],[128.32639,37.19729],[128.33218,37.2139],[128.31659,37.22339],[128.2684,37.20792],[128.25093,37.22958],[128.22924,37.22757],[128.2078,37.24882],[128.1741,37.23261],[128.16448,37.21346],[128.12532,37.23454],[128.1087,37.20567],[128.04107,37.18899],[128.01826,37.24571],[127.97191,37.25638],[127.92172,37.22538],[127.93626,37.18877],[127.92633,37.16553],[127.90863,37.16712],[127.89889,37.1498],[127.87198,37.16434],[127.78952,37.14341],[127.75707,37.1692],[127.74426,37.20755],[127.76019,37.26825],[127.74988,37.29716],[127.76832,37.30669],[127.75948,37.36729],[127.77894,37.37077],[127.80401,37.42885],[127.80048,37.47125],[127.76003,37.49289],[127.7599,37.50327],[127.80958,37.53786],[127.84202,37.5389],[127.84808,37.5523],[127.79408,37.58525],[127.7079,37.58635],[127.66385,37.6238],[127.60622,37.65079],[127.57935,37.63298],[127.54867,37.633],[127.53524,37.64716],[127.55282,37.66153],[127.55991,37.72858],[127.5118,37.71572],[127.50615,37.72415],[127.54488,37.76007],[127.52081,37.79254],[127.53735,37.81054],[127.52732,37.83646],[127.57789,37.87401],[127.60585,37.87649],[127.61714,37.90636],[127.61207,37.9406],[127.60042,37.95654],[127.54523,37.96773],[127.53988,38.00057],[127.50392,37.99795],[127.46154,38.01285],[127.44458,38.05726],[127.44517,38.09747],[127.43093,38.11536],[127.41341,38.10201],[127.37861,38.11843],[127.33696,38.08977],[127.32067,38.09468],[127.30953,38.11828],[127.27581,38.12418],[127.29799,38.1752],[127.28313,38.1829],[127.21919,38.13906],[127.18893,38.16182],[127.18924,38.18823],[127.15971,38.21955],[127.16329,38.23848],[127.11357,38.23682],[127.11073,38.27098],[127.09504,38.28108],[127.13215,38.31364],[127.15547,38.30403],[127.24236,38.33313],[127.28546,38.32645],[127.2995,38.31291],[127.38135,38.33715],[127.44579,38.31673],[127.45822,38.32665],[127.49697,38.29956],[127.57792,38.33638],[127.68402,38.32401],[127.74517,38.34273],[127.76934,38.33524],[127.78242,38.349],[127.82174,38.30379],[127.87486,38.31689],[127.92679,38.30938],[127.95822,38.30022],[127.9858,38.27348],[128.00256,38.27551],[128.01821,38.31419],[128.06876,38.30996],[128.11534,38.33662],[128.15775,38.34255],[128.19198,38.37289],[128.21245,38.37015],[128.24578,38.41451],[128.28344,38.43616],[128.3132,38.51236],[128.3095,38.59356],[128.35678,38.61371],[128.41084,38.55588],[128.42099,38.50645],[128.46697,38.45009],[128.45504,38.44521],[128.45669,38.43157],[128.51069,38.37317],[128.51275,38.34725],[128.55121,38.30351],[128.56026,38.25785],[128.60207,38.21464],[128.58213,38.19332],[128.60023,38.20205],[128.61481,38.18111],[128.61083,38.14631],[128.72544,38.02378]]]]}},{"type":"Feature","properties":{"code":"33","name":"충북","slug":"chungbuk","center":[127.84137,36.70836]},"geometry":{"type":"Polygon","coordinates":[[[127.31049,36.72429],[127.3392,36.72973],[127.33535,36.75241],[127.35882,36.76058],[127.40444,36.74602],[127.42042,36.76084],[127.3955,36.78248],[127.40079,36.79909],[127.33454,36.83067],[127.3348,36.85618],[127.3073,36.8597],[127.30788,36.88539],[127.28783,36.89378],[127.30336,36.91639],[127.29497,36.93067],[127.34963,36.95279],[127.37566,36.94866],[127.40153,36.96768],[127.38497,36.98364],[127.3927,36.99701],[127.44709,37.01089],[127.46821,37.05349],[127.49984,37.04764],[127.51826,37.0584],[127.55683,37.04125],[127.57798,37.07534],[127.60472,37.06878],[127.59511,37.08799],[127.63453,37.09983],[127.62831,37.15529],[127.68859,37.13554],[127.74413,37.21486],[127.756,37.17085],[127.78952,37.14341],[127.87198,37.16434],[127.89889,37.1498],[127.90863,37.16712],[127.93363,37.1758],[127.92172,37.22538],[127.96974,37.2557],[128.01826,37.24571],[128.04107,37.18899],[128.1087,37.20567],[128.12532,37.23454],[128.16448,37.21346],[128.1741,37.23261],[128.2078,37.24882],[128.22924,37.22757],[128.25093,37.22958],[128.2684,37.20792],[128.31659,37.22339],[128.33218,37.2139],[128.32639,37.19729],[128.29562,37.18329],[128.29807,37.17166],[128.26444,37.16042],[128.29624,37.1341],[128.33709,37.15785],[128.3841,37.15798],[128.4247,37.10246],[128.47781,37.11015],[128.49658,37.12576],[128.53813,37.08963],[128.6064,37.07667],[128.62264,37.0874],[128.6521,37.06544],[128.63292,37.0405],[128.60844,37.05281],[128.56837,37.03422],[128.57127,37.01593],[128.55473,36.99829],[128.51547,36.98682],[128.44175,36.92736],[128.42397,36.87653],[128.448,36.86439],[128.44903,36.84784],[128.42114,36.81181],[128.38334,36.81376],[128.36408,36.80222],[128.31645,36.81666],[128.28248,36.85596],[128.24183,36.87233],[128.23702,36.84535],[128.21125,36.8469],[128.21537,36.812],[128.13357,36.8328],[128.09007,36.79664],[128.05964,36.81677],[128.03232,36.74758],[128.06799,36.72223],[128.07038,36.7077],[128.01484,36.73019],[127.98685,36.71755],[127.95846,36.73684],[127.94953,36.70805],[127.93357,36.70649],[127.92892,36.69084],[127.89389,36.69438],[127.87429,36.68196],[127.92957,36.66877],[127.93921,36.64706],[127.92524,36.60281],[127.88965,36.62935],[127.87966,36.65677],[127.84675,36.63399],[127.8583,36.61353],[127.79847,36.60208],[127.8049,36.58139],[127.86042,36.56795],[127.87609,36.53702],[127.90246,36.52807],[127.90634,36.50694],[127.87609,36.48837],[127.87299,36.42428],[127.88271,36.42217],[127.8629,36.39297],[127.87572,36.39059],[127.89126,36.35966],[127.84148,36.31],[127.85212,36.27392],[127.88264,36.27375],[127.90429,36.30145],[127.90811,36.28551],[127.96017,36.25237],[128.02622,36.2679],[128.04735,36.25655],[128.0299,36.24001],[128.05815,36.20125],[128.03863,36.19416],[128.00975,36.20936],[127.97802,36.19811],[127.9972,36.15547],[127.98778,36.12882],[127.9668,36.11806],[127.96087,36.07034],[127.87677,36.02251],[127.84855,36.03972],[127.76427,36.01243],[127.76161,36.02518],[127.70193,36.03527],[127.68809,36.06274],[127.66023,36.03854],[127.61727,36.09358],[127.6191,36.10889],[127.58948,36.1343],[127.60166,36.16002],[127.59778,36.2175],[127.57955,36.2328],[127.54533,36.22551],[127.54986,36.23842],[127.53624,36.25123],[127.49258,36.23795],[127.48605,36.26125],[127.49881,36.28281],[127.49118,36.29702],[127.50056,36.33929],[127.5224,36.35432],[127.52493,36.38751],[127.55968,36.39822],[127.52432,36.42343],[127.50155,36.40865],[127.48972,36.43413],[127.50446,36.4519],[127.47828,36.45728],[127.48403,36.47662],[127.45133,36.44925],[127.40209,36.45604],[127.40501,36.53731],[127.38388,36.54153],[127.37755,36.56783],[127.33809,36.56234],[127.32144,36.58378],[127.29982,36.58595],[127.3066,36.60094],[127.29216,36.63564],[127.27565,36.6398],[127.30509,36.66757],[127.30763,36.68202],[127.28529,36.69067],[127.3084,36.70481],[127.31049,36.72429]]]}},{"type":"Feature","properties":{"code":"34","name":"충남","slug":"chungnam","center":[126.78647,36.54015]},"geometry":{"type":"MultiPolygon","coordinates":[[[[126.37484,36.59656],[126.37514,36.57879],[126.35882,36.57215],[126.37517,36.56452],[126.38661,36.52424],[126.3781,36.5192],[126.40176,36.50547],[126.39895,36.48824],[126.41029,36.49166],[126.41746,36.46461],[126.40647,36.45315],[126.4319,36.43737],[126.42748,36.39929],[126.38999,36.42192],[126.36235,36.41552],[126.35102,36.42542],[126.36402,36.44059],[126.33031,36.4413],[126.32418,36.4682],[126.33873,36.50511],[126.31162,36.58542],[126.35918,36.61245],[126.37484,36.59656]]],[[[126.69484,37.00044],[126.78265,36.97522],[126.81728,36.89647],[126.86252,36.88001],[126.90589,36.88869],[126.91674,36.90621],[126.99518,36.93536],[127.03104,36.92809],[127.09576,36.94237],[127.11154,36.97128],[127.15918,36.96976],[127.20214,36.95171],[127.21045,36.93054],[127.27345,36.91145],[127.30788,36.88539],[127.3073,36.8597],[127.33649,36.85469],[127.33454,36.83067],[127.40079,36.79909],[127.3955,36.78248],[127.4197,36.75766],[127.40444,36.74602],[127.36855,36.76135],[127.33551,36.75264],[127.34253,36.73379],[127.31049,36.72429],[127.3084,36.70481],[127.28526,36.69061],[127.24571,36.69589],[127.20312,36.72615],[127.16469,36.73382],[127.12777,36.70883],[127.14175,36.68998],[127.16138,36.69044],[127.15588,36.60601],[127.20775,36.57796],[127.19183,36.54603],[127.17424,36.54219],[127.18235,36.52144],[127.16999,36.50904],[127.17705,36.4926],[127.19468,36.48959],[127.19893,36.43988],[127.2508,36.40676],[127.2821,36.415],[127.27057,36.36086],[127.27912,36.34482],[127.25977,36.32725],[127.25985,36.29565],[127.24665,36.29096],[127.29176,36.26468],[127.28184,36.2358],[127.31526,36.22129],[127.33355,36.20067],[127.3317,36.18406],[127.3642,36.2189],[127.3602,36.26221],[127.37246,36.27218],[127.39026,36.26227],[127.38734,36.23415],[127.4411,36.19479],[127.48997,36.2371],[127.53257,36.25089],[127.54944,36.23933],[127.54533,36.22551],[127.57955,36.2328],[127.59778,36.2175],[127.60166,36.16002],[127.58948,36.1343],[127.6191,36.10889],[127.61727,36.09358],[127.6383,36.06794],[127.62055,36.06421],[127.6191,36.03917],[127.63975,36.03225],[127.61074,36.02535],[127.61459,36.0012],[127.58977,36.02605],[127.53369,36.04094],[127.53666,35.99645],[127.50889,35.97978],[127.45579,35.98382],[127.43456,36.0295],[127.39751,36.01025],[127.36037,36.05452],[127.36006,36.08938],[127.34769,36.09827],[127.35492,36.10834],[127.33848,36.1305],[127.27452,36.10743],[127.25213,36.11313],[127.2487,36.08307],[127.20591,36.10059],[127.19804,36.08579],[127.18244,36.09469],[127.16878,36.08398],[127.13965,36.08787],[127.12269,36.06358],[127.06115,36.089],[127.06301,36.12522],[127.04484,36.14609],[127.02406,36.1365],[127.01544,36.14876],[126.95663,36.15657],[126.91969,36.1363],[126.88775,36.13795],[126.86553,36.06092],[126.8211,36.04992],[126.80582,36.03436],[126.74805,36.02575],[126.73648,36.00043],[126.66797,36.00425],[126.66873,36.03124],[126.64464,36.05678],[126.63117,36.05468],[126.6307,36.07731],[126.61891,36.07754],[126.64468,36.09394],[126.61168,36.09551],[126.57003,36.14026],[126.55601,36.12843],[126.53903,36.14789],[126.5155,36.15198],[126.50103,36.14106],[126.5089,36.12943],[126.4942,36.13336],[126.49284,36.15866],[126.52618,36.16941],[126.53784,36.20149],[126.52902,36.23833],[126.54814,36.26529],[126.5043,36.32982],[126.56013,36.35102],[126.50108,36.37985],[126.50803,36.3865],[126.47984,36.38477],[126.49529,36.42579],[126.53161,36.44096],[126.49808,36.4327],[126.48671,36.4548],[126.47932,36.49156],[126.4881,36.52655],[126.46625,36.53481],[126.46411,36.58349],[126.45528,36.59539],[126.41086,36.60355],[126.41422,36.61497],[126.36573,36.62685],[126.29221,36.58481],[126.28309,36.62219],[126.29784,36.62036],[126.30097,36.63844],[126.28428,36.67171],[126.26551,36.67163],[126.2613,36.69386],[126.27942,36.7299],[126.25148,36.71375],[126.23503,36.7181],[126.23908,36.70292],[126.20941,36.6932],[126.19623,36.67431],[126.15558,36.67779],[126.14683,36.7028],[126.16597,36.71649],[126.20726,36.70519],[126.22291,36.72196],[126.1992,36.72157],[126.21151,36.74101],[126.16639,36.75832],[126.14082,36.75404],[126.15049,36.73052],[126.12013,36.70784],[126.13409,36.74845],[126.11163,36.77294],[126.13529,36.77554],[126.13066,36.7871],[126.14583,36.7911],[126.14301,36.80872],[126.16069,36.82644],[126.14985,36.84627],[126.17107,36.8407],[126.17189,36.81176],[126.18572,36.81445],[126.17545,36.83242],[126.1985,36.85587],[126.17686,36.88454],[126.1975,36.88856],[126.20272,36.90486],[126.24937,36.91398],[126.29248,36.90109],[126.2847,36.96326],[126.30171,36.9779],[126.29203,36.96286],[126.31023,36.95615],[126.30034,36.91927],[126.33073,36.89112],[126.2956,36.8528],[126.29461,36.84203],[126.31699,36.83736],[126.2828,36.82505],[126.28729,36.79953],[126.3048,36.81468],[126.33741,36.81623],[126.31781,36.84306],[126.33251,36.86346],[126.34771,36.86084],[126.34321,36.84627],[126.36511,36.82955],[126.36449,36.87653],[126.39787,36.88064],[126.40704,36.90167],[126.43238,36.90109],[126.40468,36.91918],[126.4189,36.93741],[126.38896,36.92676],[126.38026,36.94527],[126.35944,36.93889],[126.35018,36.96145],[126.33315,36.96115],[126.33483,36.97356],[126.37038,36.96026],[126.38868,36.96982],[126.37464,36.98259],[126.33054,36.98544],[126.32761,36.99964],[126.35683,37.01152],[126.4208,37.01982],[126.4544,36.99896],[126.47021,37.0068],[126.46022,37.02017],[126.49836,37.06494],[126.54195,37.03505],[126.5612,37.03705],[126.63154,37.00215],[126.69484,37.00044]],[[126.48796,36.50852],[126.50554,36.52398],[126.54055,36.50397],[126.56311,36.5059],[126.55914,36.52426],[126.55324,36.50645],[126.50215,36.53187],[126.48354,36.51686],[126.48796,36.50852]],[[126.61522,36.48828],[126.58936,36.47524],[126.56144,36.48405],[126.52616,36.44732],[126.54904,36.45002],[126.5558,36.46758],[126.55257,36.45283],[126.56554,36.45207],[126.56838,36.47187],[126.59171,36.46924],[126.61522,36.48828]]]]}},{"type":"Feature","properties":{"code":"35","name":"전북","slug":"jeonbuk","center":[127.02287,35.71521]},"geometry":{"type":"MultiPolygon","coordinates":[[[[126.99525,36.14685],[127.01544,36.14876],[127.02423,36.13649],[127.04484,36.14609],[127.06301,36.12522],[127.06115,36.089],[127.12269,36.06358],[127.13965,36.08787],[127.16878,36.08398],[127.18244,36.09469],[127.19804,36.08579],[127.20591,36.10059],[127.2487,36.08307],[127.25213,36.11313],[127.27452,36.10743],[127.33848,36.1305],[127.35306,36.11361],[127.34769,36.09827],[127.36006,36.08938],[127.36037,36.05452],[127.37649,36.02292],[127.40122,36.00874],[127.43456,36.0295],[127.45579,35.98382],[127.48773,35.97826],[127.53587,35.9949],[127.53142,36.04084],[127.58977,36.02605],[127.61415,36.0008],[127.61074,36.02535],[127.63975,36.03225],[127.6191,36.03917],[127.62392,36.06727],[127.64455,36.06681],[127.66441,36.03751],[127.68902,36.06267],[127.70193,36.03527],[127.76161,36.02518],[127.76427,36.01243],[127.84855,36.03972],[127.87677,36.02251],[127.8756,35.99691],[127.89322,35.98678],[127.91137,35.94918],[127.88224,35.92888],[127.88786,35.91206],[127.85954,35.90649],[127.84175,35.86625],[127.76885,35.83831],[127.74445,35.84442],[127.71939,35.79732],[127.6635,35.76404],[127.66096,35.70991],[127.6201,35.64614],[127.63534,35.61848],[127.61302,35.60825],[127.61119,35.58389],[127.58486,35.55391],[127.62869,35.53598],[127.65311,35.48687],[127.63661,35.47821],[127.63669,35.45935],[127.67407,35.44572],[127.66047,35.41443],[127.61076,35.36695],[127.62333,35.34217],[127.60478,35.31837],[127.57748,35.3089],[127.50202,35.35836],[127.47077,35.36534],[127.43089,35.35811],[127.38457,35.30246],[127.35426,35.32236],[127.30989,35.30452],[127.25717,35.31246],[127.22205,35.33489],[127.2036,35.31567],[127.18616,35.33695],[127.14547,35.30898],[127.10524,35.29923],[127.04309,35.32189],[127.05233,35.34026],[127.07025,35.33964],[127.07063,35.36521],[127.02746,35.39468],[127.04693,35.40219],[127.05232,35.42652],[127.03735,35.43386],[127.03472,35.46657],[127.00002,35.46287],[126.99455,35.4398],[126.97138,35.42767],[126.9761,35.40005],[126.93537,35.39456],[126.90307,35.42063],[126.89677,35.44799],[126.83954,35.46232],[126.8433,35.47833],[126.82334,35.48691],[126.81397,35.4688],[126.7649,35.46706],[126.73772,35.44949],[126.7542,35.4165],[126.72247,35.39993],[126.73219,35.38319],[126.7225,35.36686],[126.68573,35.34424],[126.66644,35.35149],[126.6448,35.31978],[126.60417,35.33566],[126.58496,35.33018],[126.5849,35.30079],[126.55108,35.31368],[126.53038,35.30815],[126.51386,35.32747],[126.51276,35.36203],[126.49355,35.35038],[126.49741,35.3732],[126.47738,35.38618],[126.49288,35.40924],[126.47966,35.4265],[126.42985,35.43292],[126.42947,35.44964],[126.48501,35.52236],[126.49682,35.50992],[126.50252,35.52527],[126.52639,35.53482],[126.54426,35.52733],[126.55982,35.54326],[126.59455,35.54098],[126.59539,35.52975],[126.61401,35.57041],[126.63319,35.57473],[126.67633,35.54761],[126.65754,35.58688],[126.5752,35.59042],[126.52798,35.5793],[126.51511,35.58769],[126.5087,35.5792],[126.45997,35.61022],[126.46928,35.62823],[126.45812,35.6378],[126.55637,35.69778],[126.52022,35.73168],[126.48224,35.81517],[126.51953,35.73804],[126.56937,35.68643],[126.62862,35.74907],[126.62137,35.78689],[126.63146,35.79949],[126.70676,35.79652],[126.67455,35.88915],[126.61236,35.88628],[126.6175,35.93983],[126.5936,35.94834],[126.58827,35.90272],[126.57568,35.90311],[126.5881,35.90295],[126.58792,35.92076],[126.57152,35.91982],[126.56487,35.90518],[126.56481,35.93618],[126.53442,35.93401],[126.49835,35.83544],[126.47284,35.81095],[126.46189,35.81914],[126.44937,35.80674],[126.44212,35.82891],[126.4753,35.82233],[126.49074,35.83817],[126.53113,35.93149],[126.51281,35.97494],[126.52332,35.9663],[126.61314,35.97885],[126.62438,35.97101],[126.70601,35.99471],[126.73671,35.98576],[126.75593,36.01054],[126.74166,36.01221],[126.74805,36.02575],[126.80582,36.03436],[126.86804,36.06241],[126.8897,36.13962],[126.91969,36.1363],[126.95663,36.15657],[126.99525,36.14685]]]]}},{"type":"Feature","properties":{"code":"36","name":"전남","slug":"jeonnam","center":[126.90472,34.85499]},"geometry":{"type":"MultiPolygon","coordinates":[[[[126.55036,34.17716],[126.57265,34.16128],[126.62083,34.1646],[126.62065,34.15523],[126.60319,34.16113],[126.60414,34.14598],[126.58968,34.16234],[126.56379,34.13531],[126.51189,34.12205],[126.5045,34.1597],[126.53933,34.18195],[126.55036,34.17716]]],[[[126.65436,34.19836],[126.68471,34.18159],[126.65599,34.17168],[126.66994,34.14762],[126.68287,34.14849],[126.66888,34.14357],[126.65993,34.11099],[126.64987,34.1303],[126.63756,34.12249],[126.62781,34.1456],[126.65215,34.17009],[126.63327,34.18806],[126.65436,34.19836]]],[[[126.89039,34.21741],[126.91043,34.21269],[126.90834,34.18334],[126.92847,34.18957],[126.91789,34.15827],[126.88128,34.14972],[126.86491,34.16585],[126.85646,34.15052],[126.84836,34.16282],[126.85952,34.1706],[126.84705,34.17415],[126.85756,34.17773],[126.85729,34.19929],[126.89039,34.21741]]],[[[126.56791,34.23381],[126.57253,34.22246],[126.59516,34.22698],[126.61517,34.21564],[126.62486,34.2026],[126.60285,34.19971],[126.61644,34.18319],[126.58673,34.19101],[126.5877,34.17272],[126.54844,34.18929],[126.56735,34.22345],[126.55316,34.23349],[126.56791,34.23381]]],[[[126.83929,34.31239],[126.8288,34.32575],[126.79401,34.31537],[126.75168,34.33532],[126.77806,34.3323],[126.78689,34.3461],[126.81573,34.33643],[126.83481,34.35869],[126.88065,34.33634],[126.89641,34.34489],[126.89716,34.33259],[126.88034,34.32938],[126.88255,34.31086],[126.86586,34.32234],[126.84207,34.29895],[126.83929,34.31239]]],[[[127.0299,34.33968],[127.01944,34.35332],[126.98576,34.35915],[127.00697,34.35697],[127.01404,34.37727],[127.02989,34.38085],[127.04492,34.35107],[127.07613,34.36158],[127.101,34.33805],[127.0676,34.34736],[127.06201,34.34068],[127.07715,34.33242],[127.0563,34.33005],[127.04212,34.30834],[127.03679,34.32542],[127.0535,34.33724],[127.0299,34.33968]]],[[[126.69443,34.39847],[126.72917,34.38001],[126.73569,34.34291],[126.75417,34.31576],[126.76852,34.31685],[126.76161,34.30037],[126.77772,34.28757],[126.73447,34.30467],[126.73797,34.28664],[126.69479,34.2925],[126.66946,34.3232],[126.64556,34.32813],[126.63898,34.38214],[126.67099,34.40128],[126.69443,34.39847]]],[[[126.94316,34.39295],[126.93499,34.38366],[126.94789,34.36777],[126.92875,34.37036],[126.90743,34.35347],[126.8637,34.37338],[126.87199,34.39759],[126.86175,34.40671],[126.93073,34.39064],[126.94336,34.41291],[126.94316,34.39295]]],[[[126.83319,34.43708],[126.84351,34.42061],[126.82405,34.41928],[126.84015,34.41059],[126.85016,34.41826],[126.86565,34.38983],[126.83018,34.37808],[126.82335,34.387],[126.7933,34.38233],[126.78076,34.35309],[126.76768,34.35741],[126.77938,34.38195],[126.74977,34.3801],[126.77493,34.42261],[126.83319,34.43708]]],[[[127.4785,34.46412],[127.49358,34.45868],[127.5045,34.47304],[127.53713,34.44795],[127.53836,34.43122],[127.48728,34.41346],[127.49299,34.43148],[127.4628,34.44364],[127.48534,34.4477],[127.44967,34.44899],[127.45482,34.47579],[127.4785,34.46412]]],[[[127.21737,34.49521],[127.23502,34.47575],[127.20852,34.42942],[127.16715,34.43518],[127.14145,34.42049],[127.11628,34.44774],[127.09926,34.44318],[127.10641,34.45478],[127.09292,34.47069],[127.12111,34.49023],[127.14167,34.47277],[127.21737,34.49521]]],[[[127.46628,34.54364],[127.47881,34.53617],[127.45857,34.52571],[127.47567,34.51505],[127.45774,34.51369],[127.49111,34.50816],[127.50644,34.49202],[127.45256,34.47862],[127.44089,34.4928],[127.45616,34.51073],[127.43386,34.51996],[127.46628,34.54364]]],[[[127.76967,34.53046],[127.78216,34.51203],[127.7669,34.51031],[127.79866,34.49602],[127.77132,34.4874],[127.76265,34.49114],[127.77302,34.50005],[127.73478,34.50315],[127.73174,34.52729],[127.6963,34.53888],[127.75776,34.5515],[127.76967,34.53046]]],[[[126.25221,34.58422],[126.30363,34.57097],[126.31463,34.54359],[126.33898,34.5516],[126.35113,34.52758],[126.37738,34.51241],[126.38502,34.48073],[126.35824,34.48085],[126.37222,34.47068],[126.3584,34.45701],[126.36567,34.44329],[126.329,34.39415],[126.32023,34.42451],[126.31425,34.40006],[126.30303,34.41428],[126.30644,34.40199],[126.29261,34.4089],[126.28947,34.39406],[126.31028,34.38163],[126.28855,34.36421],[126.27965,34.37198],[126.29188,34.39132],[126.26548,34.39731],[126.26724,34.37788],[126.20225,34.37109],[126.21418,34.36033],[126.18005,34.34895],[126.18128,34.35932],[126.15641,34.35673],[126.16112,34.36525],[126.12998,34.35928],[126.14302,34.38515],[126.11454,34.38128],[126.08923,34.41853],[126.09608,34.4357],[126.11766,34.44931],[126.12827,34.44338],[126.11661,34.45963],[126.17242,34.48473],[126.19067,34.51432],[126.18834,34.49619],[126.2049,34.4957],[126.19832,34.51],[126.22335,34.5164],[126.2118,34.52687],[126.22566,34.54131],[126.23597,34.53655],[126.25091,34.56302],[126.23975,34.56489],[126.23839,34.58383],[126.25221,34.58422]]],[[[126.05819,34.62849],[126.10007,34.60816],[126.11142,34.58861],[126.09192,34.56876],[126.09941,34.55228],[126.08338,34.55616],[126.07668,34.54034],[126.03121,34.53099],[126.02938,34.54382],[126.04471,34.5376],[126.06094,34.54872],[126.02748,34.55269],[126.03083,34.56118],[126.06397,34.55934],[126.08702,34.58446],[126.07462,34.58414],[126.05976,34.61217],[126.04732,34.61012],[126.05819,34.62849]]],[[[126.01744,34.63553],[126.03941,34.63027],[126.03323,34.6111],[126.05601,34.60265],[126.06443,34.58321],[126.05595,34.56822],[126.01917,34.56417],[126.01453,34.58547],[126.02675,34.59226],[126.01108,34.59642],[126.01744,34.63553]]],[[[126.16036,34.66904],[126.18721,34.65237],[126.18536,34.63773],[126.20123,34.63538],[126.12203,34.61544],[126.1322,34.64167],[126.10969,34.64869],[126.16036,34.66904]]],[[[125.42514,34.69666],[125.4293,34.6849],[125.45417,34.69548],[125.46404,34.6872],[125.42259,34.66033],[125.42756,34.64568],[125.40126,34.6251],[125.38671,34.65728],[125.41206,34.69688],[125.42514,34.69666]]],[[[127.78639,34.71203],[127.78891,34.6995],[127.77587,34.70225],[127.77851,34.71198],[127.75917,34.70386],[127.77916,34.697],[127.78301,34.6716],[127.80654,34.66081],[127.78795,34.60702],[127.80793,34.59661],[127.78967,34.58479],[127.74926,34.5929],[127.71171,34.62147],[127.7246,34.63754],[127.7122,34.64339],[127.76304,34.68757],[127.73691,34.73131],[127.78639,34.71203]]],[[[125.97002,34.72557],[126.0136,34.70307],[126.00775,34.68515],[125.96519,34.65634],[125.9537,34.65861],[125.95481,34.67254],[125.92061,34.67148],[125.91574,34.71097],[125.94662,34.71466],[125.96138,34.73739],[125.97002,34.72557]]],[[[126.10465,34.76652],[126.12478,34.77098],[126.14386,34.75194],[126.17367,34.75333],[126.18283,34.7237],[126.17458,34.70084],[126.14557,34.70146],[126.13713,34.72857],[126.07478,34.70889],[126.07111,34.74163],[126.08189,34.75069],[126.06436,34.76858],[126.10465,34.76652]]],[[[126.3578,34.77967],[126.37567,34.77053],[126.3603,34.74478],[126.35045,34.75058],[126.3578,34.77967]]],[[[125.99344,34.80695],[126.00053,34.78945],[125.98507,34.77454],[125.99882,34.77358],[125.99833,34.76167],[125.96891,34.75908],[125.96102,34.74723],[125.95428,34.76687],[125.95614,34.75353],[125.93072,34.75408],[125.94978,34.73361],[125.93613,34.72017],[125.89284,34.72777],[125.8895,34.76656],[125.90001,34.78025],[125.93847,34.77727],[125.99344,34.80695]]],[[[126.11587,34.88198],[126.14384,34.88099],[126.15713,34.86633],[126.13274,34.8599],[126.14901,34.83977],[126.14167,34.82715],[126.12023,34.83408],[126.11853,34.80027],[126.09404,34.79714],[126.08011,34.81894],[126.07534,34.79445],[126.043,34.82582],[126.06643,34.81314],[126.07992,34.81896],[126.05965,34.84768],[126.08263,34.85921],[126.11519,34.85074],[126.11587,34.88198]]],[[[126.29447,34.84996],[126.27654,34.85569],[126.26283,34.83974],[126.22595,34.84961],[126.23302,34.86471],[126.25979,34.85823],[126.27006,34.87288],[126.27941,34.8634],[126.28108,34.88707],[126.30366,34.88769],[126.28053,34.90996],[126.29921,34.92181],[126.35047,34.89873],[126.34937,34.88722],[126.32636,34.89166],[126.3296,34.87942],[126.31695,34.88288],[126.32574,34.87287],[126.31446,34.86659],[126.35696,34.86369],[126.37305,34.83305],[126.3499,34.81366],[126.32733,34.82212],[126.34591,34.8353],[126.33429,34.8485],[126.29447,34.84996]]],[[[126.06308,34.93279],[126.09862,34.90978],[126.08365,34.89561],[126.099,34.88946],[126.09528,34.87654],[126.07883,34.88119],[126.08437,34.86424],[126.04243,34.84446],[126.02021,34.86176],[126.02512,34.87225],[126.00804,34.85917],[125.96748,34.87287],[125.99018,34.87675],[126.01365,34.91191],[126.0546,34.91218],[126.05639,34.93865],[126.06308,34.93279]]],[[[127.73795,34.94011],[127.7845,34.91552],[127.78424,34.88653],[127.74215,34.90559],[127.761,34.90848],[127.70463,34.91329],[127.70392,34.92944],[127.72405,34.94714],[127.73795,34.94011]],[[127.76835,34.91186],[127.76724,34.89646],[127.78179,34.89645],[127.78144,34.91251],[127.76835,34.91186]]],[[[126.13535,35.02619],[126.16553,35.02055],[126.17991,34.97492],[126.16352,34.96293],[126.14413,34.96877],[126.12488,34.9469],[126.13429,34.99045],[126.14516,34.98865],[126.13291,35.00159],[126.098,35.00266],[126.13535,35.02619]]],[[[126.05561,35.07519],[126.04218,35.08462],[126.05605,35.09579],[126.04895,35.10275],[126.08072,35.10752],[126.11403,35.14327],[126.16386,35.14579],[126.12441,35.13474],[126.12353,35.08149],[126.10215,35.08801],[126.12238,35.07714],[126.10131,35.04799],[126.07411,35.0595],[126.07726,35.06965],[126.06043,35.06832],[126.06289,35.05549],[126.03783,35.0654],[126.05561,35.07519]]],[[[126.89043,34.45614],[126.87058,34.45527],[126.88356,34.42198],[126.84423,34.45165],[126.80729,34.45443],[126.80805,34.46824],[126.78828,34.461],[126.79689,34.54734],[126.77889,34.6131],[126.76917,34.52662],[126.75843,34.52592],[126.76577,34.49919],[126.73863,34.48633],[126.7545,34.47195],[126.72457,34.44327],[126.67335,34.42737],[126.67714,34.41632],[126.66442,34.42698],[126.61607,34.40201],[126.62034,34.35916],[126.60201,34.34906],[126.60558,34.31506],[126.55882,34.32192],[126.52185,34.29276],[126.51231,34.31915],[126.52692,34.33444],[126.51579,34.33915],[126.51989,34.36084],[126.50212,34.36475],[126.47522,34.34811],[126.46469,34.36214],[126.48696,34.36456],[126.47184,34.3847],[126.49735,34.38556],[126.48722,34.40835],[126.51679,34.41425],[126.50698,34.44071],[126.48195,34.42575],[126.45623,34.44778],[126.47759,34.45012],[126.45565,34.47725],[126.46626,34.48531],[126.45636,34.50163],[126.47122,34.50688],[126.44207,34.5225],[126.46046,34.53201],[126.43437,34.53527],[126.43569,34.54978],[126.41517,34.55816],[126.41766,34.54716],[126.38646,34.53249],[126.38335,34.56183],[126.31358,34.56763],[126.30377,34.57731],[126.31274,34.58774],[126.29534,34.60071],[126.28015,34.59542],[126.28025,34.61162],[126.259,34.61215],[126.28014,34.61206],[126.29417,34.62942],[126.26056,34.64066],[126.26843,34.64767],[126.25534,34.66423],[126.28581,34.7578],[126.2988,34.76212],[126.33247,34.74041],[126.33054,34.72084],[126.35842,34.69355],[126.38936,34.73038],[126.36056,34.742],[126.38045,34.75264],[126.37176,34.75402],[126.38107,34.76855],[126.44977,34.78277],[126.44098,34.79928],[126.38198,34.77927],[126.35,34.79636],[126.3883,34.83676],[126.41244,34.84275],[126.39504,34.86941],[126.40146,34.88039],[126.38668,34.87813],[126.40503,34.91133],[126.38864,34.92822],[126.39852,34.93523],[126.38783,34.94695],[126.39352,34.9649],[126.37952,34.97117],[126.37366,34.99891],[126.3592,34.96852],[126.3732,34.95753],[126.36754,34.92005],[126.32972,34.91641],[126.32637,34.93064],[126.30683,34.92819],[126.32091,34.94345],[126.29507,34.96558],[126.31338,34.98839],[126.3278,34.96684],[126.35747,34.98372],[126.35863,34.9929],[126.33238,34.99336],[126.39023,35.0243],[126.38155,35.04894],[126.3529,35.03864],[126.34945,35.05648],[126.33139,35.06184],[126.34459,35.06968],[126.33633,35.08385],[126.31904,35.08857],[126.31644,35.07051],[126.30046,35.06202],[126.31385,35.05729],[126.30482,35.04548],[126.29595,35.04158],[126.28554,35.06208],[126.26067,35.05343],[126.27455,35.03444],[126.24983,35.01177],[126.24403,35.0272],[126.22731,35.01977],[126.23273,35.05297],[126.16164,35.06666],[126.15696,35.0906],[126.19037,35.1126],[126.25939,35.09366],[126.24334,35.11145],[126.25906,35.14289],[126.27297,35.15013],[126.27885,35.13575],[126.32062,35.12748],[126.326,35.14959],[126.3458,35.15973],[126.33194,35.09325],[126.35309,35.0997],[126.34455,35.07666],[126.3663,35.07842],[126.37013,35.06178],[126.39162,35.08581],[126.38439,35.06672],[126.39684,35.07602],[126.40884,35.0625],[126.39049,35.04302],[126.40353,35.02699],[126.4275,35.02742],[126.41979,35.04428],[126.45756,35.07399],[126.43594,35.08632],[126.46505,35.09997],[126.42168,35.10707],[126.38329,35.15871],[126.35912,35.1689],[126.3543,35.18407],[126.37248,35.19008],[126.3768,35.2119],[126.33841,35.19094],[126.34225,35.21395],[126.32133,35.20388],[126.3159,35.2175],[126.29955,35.2108],[126.29684,35.2231],[126.30805,35.2509],[126.32845,35.24398],[126.32235,35.26306],[126.34725,35.2738],[126.33256,35.26809],[126.32958,35.27998],[126.37151,35.28431],[126.39719,35.36923],[126.44799,35.34859],[126.40731,35.38203],[126.4111,35.40561],[126.40287,35.40463],[126.41973,35.4259],[126.40989,35.43262],[126.47603,35.42933],[126.49288,35.40924],[126.47738,35.38618],[126.49741,35.3732],[126.49355,35.35038],[126.51276,35.36203],[126.52435,35.31394],[126.5849,35.30079],[126.58496,35.33018],[126.60417,35.33566],[126.6448,35.31978],[126.66644,35.35149],[126.68573,35.34424],[126.7225,35.36686],[126.73219,35.38319],[126.72247,35.39993],[126.7542,35.4165],[126.73772,35.44949],[126.7649,35.46706],[126.81397,35.4688],[126.82334,35.48691],[126.8433,35.47833],[126.83954,35.46232],[126.89677,35.44799],[126.90307,35.42063],[126.93537,35.39456],[126.9761,35.40005],[126.97138,35.42767],[126.99455,35.4398],[127.00002,35.46287],[127.03472,35.46657],[127.03735,35.43386],[127.05232,35.42652],[127.04693,35.40219],[127.02746,35.39468],[127.07063,35.36521],[127.07025,35.33964],[127.05233,35.34026],[127.04309,35.32189],[127.10524,35.29923],[127.14547,35.30898],[127.18616,35.33695],[127.2036,35.31567],[127.22205,35.33489],[127.25717,35.31246],[127.30989,35.30452],[127.35426,35.32236],[127.38457,35.30246],[127.43089,35.35811],[127.47077,35.36534],[127.56783,35.31852],[127.61525,35.25039],[127.61814,35.1909],[127.68868,35.13517],[127.69726,35.10178],[127.76532,35.05363],[127.78626,35.01761],[127.78004,34.98919],[127.75272,34.96199],[127.76773,34.95383],[127.76854,34.93379],[127.74476,34.93484],[127.73979,34.94895],[127.75156,34.96194],[127.73109,34.95485],[127.69586,34.91895],[127.67232,34.93149],[127.66276,34.91245],[127.67099,34.90309],[127.63934,34.88378],[127.62436,34.90218],[127.65638,34.90926],[127.62274,34.90534],[127.59894,34.92629],[127.57859,34.91883],[127.61353,34.89478],[127.58959,34.87469],[127.61228,34.85796],[127.60758,34.85086],[127.63632,34.84649],[127.62681,34.83573],[127.63621,34.82808],[127.66164,34.84461],[127.67036,34.83714],[127.695,34.86474],[127.74341,34.8508],[127.73978,34.86148],[127.77408,34.86067],[127.7689,34.80274],[127.74518,34.77741],[127.75481,34.73868],[127.69844,34.721],[127.65806,34.75561],[127.64279,34.70621],[127.62503,34.71837],[127.6135,34.70609],[127.63946,34.68342],[127.61734,34.68298],[127.63312,34.67015],[127.62991,34.64934],[127.64266,34.65045],[127.63317,34.63616],[127.64619,34.62881],[127.58295,34.65211],[127.581,34.63056],[127.55362,34.65854],[127.56356,34.67533],[127.55044,34.68212],[127.55938,34.70024],[127.58137,34.69386],[127.54841,34.71245],[127.59411,34.74846],[127.58507,34.76736],[127.57251,34.76013],[127.56007,34.77749],[127.57145,34.78273],[127.55743,34.80674],[127.52327,34.81009],[127.54298,34.84357],[127.52585,34.84515],[127.51785,34.87868],[127.49022,34.87441],[127.48596,34.84174],[127.43989,34.83645],[127.43917,34.84613],[127.40083,34.8251],[127.35501,34.84048],[127.39205,34.81455],[127.42616,34.81517],[127.39078,34.79126],[127.38566,34.77463],[127.40258,34.76703],[127.37294,34.74152],[127.42816,34.67403],[127.4895,34.64935],[127.45866,34.64556],[127.49637,34.63189],[127.5063,34.60327],[127.48748,34.5736],[127.45793,34.59163],[127.44512,34.57695],[127.4333,34.58857],[127.39536,34.58677],[127.40872,34.57879],[127.39633,34.5596],[127.43847,34.5487],[127.42674,34.54237],[127.43621,34.53744],[127.42344,34.52879],[127.42959,34.51231],[127.41353,34.52117],[127.40464,34.50627],[127.37611,34.50373],[127.38684,34.48345],[127.35866,34.49202],[127.34858,34.47754],[127.34009,34.48844],[127.32512,34.47653],[127.33726,34.46764],[127.31752,34.46347],[127.33966,34.44768],[127.32158,34.44151],[127.30484,34.45],[127.31627,34.45385],[127.30092,34.47068],[127.2676,34.48298],[127.28346,34.49742],[127.25527,34.52075],[127.23244,34.51827],[127.22088,34.53467],[127.20928,34.51664],[127.1948,34.53238],[127.17171,34.51939],[127.12159,34.53015],[127.11408,34.55954],[127.14896,34.60044],[127.17123,34.59421],[127.17292,34.62712],[127.19608,34.65139],[127.2278,34.6547],[127.25138,34.71174],[127.28099,34.71833],[127.27757,34.67448],[127.31422,34.66441],[127.33218,34.70629],[127.34448,34.70964],[127.33287,34.71483],[127.32687,34.75183],[127.30377,34.74973],[127.29262,34.73092],[127.27215,34.74171],[127.26429,34.73167],[127.24184,34.76001],[127.20899,34.73759],[127.18465,34.69454],[127.12426,34.70136],[127.1068,34.67742],[127.06668,34.66324],[127.04614,34.63497],[127.01379,34.6249],[126.95699,34.63056],[126.99413,34.62328],[127.00906,34.6076],[126.97898,34.57412],[127.0068,34.56964],[127.00319,34.55494],[126.98913,34.56166],[126.98933,34.53969],[126.96375,34.49655],[126.97874,34.47128],[126.95608,34.46835],[126.94415,34.48288],[126.93879,34.44725],[126.89043,34.45614]],[[126.47818,34.73899],[126.4568,34.72814],[126.44973,34.74371],[126.42553,34.74422],[126.42381,34.72805],[126.39588,34.74037],[126.38828,34.72578],[126.46286,34.70945],[126.47818,34.73899]],[[126.80949,35.05229],[126.85561,35.07836],[126.91801,35.09152],[126.9323,35.07439],[126.9539,35.0741],[127.01061,35.12431],[127.00774,35.15593],[127.02142,35.17304],[126.99997,35.18882],[126.96815,35.18114],[126.94879,35.22916],[126.91461,35.25821],[126.80539,35.21827],[126.75526,35.23436],[126.76029,35.2587],[126.73724,35.25289],[126.71774,35.21242],[126.6871,35.21521],[126.67712,35.19105],[126.6532,35.19252],[126.67212,35.17309],[126.64498,35.14656],[126.65172,35.12051],[126.66942,35.1046],[126.73266,35.11286],[126.77135,35.07018],[126.75414,35.06685],[126.75674,35.05824],[126.80949,35.05229]]]]}},{"type":"Feature","properties":{"code":"37","name":"경북","slug":"gyeongbuk","center":[128.64893,36.2596]},"geometry":{"type":"MultiPolygon","coordinates":[[[[129.41918,36.89238],[129.42353,36.85944],[129.47804,36.76827],[129.46804,36.75736],[129.47697,36.72793],[129.46535,36.67968],[129.43856,36.67139],[129.4121,36.62236],[129.41216,36.58605],[129.44031,36.55227],[129.4533,36.50818],[129.43292,36.48119],[129.43595,36.42546],[129.38803,36.35554],[129.37458,36.2883],[129.38656,36.21748],[129.37257,36.19717],[129.39345,36.1814],[129.39795,36.13459],[129.4399,36.11248],[129.43124,36.11244],[129.43958,36.09727],[129.37259,36.04987],[129.38579,36.02849],[129.41182,36.03572],[129.4015,36.03909],[129.43154,36.03038],[129.39556,36.01794],[129.40702,36.0089],[129.42395,36.02239],[129.41414,36.00458],[129.42359,36.01012],[129.4214,36.00119],[129.45149,35.99158],[129.50323,36.02568],[129.55558,36.08609],[129.58361,36.04629],[129.58442,36.01654],[129.55254,35.98729],[129.54643,35.95344],[129.51902,35.92895],[129.53414,35.90017],[129.51884,35.87366],[129.53434,35.86841],[129.5101,35.82596],[129.51213,35.8064],[129.49171,35.7881],[129.48185,35.7071],[129.44979,35.65107],[129.35356,35.67938],[129.29642,35.64351],[129.2555,35.66046],[129.25685,35.7007],[129.20863,35.72117],[129.16031,35.71481],[129.14453,35.72483],[129.07722,35.69294],[129.06727,35.66199],[129.08085,35.64325],[129.0469,35.65052],[129.03697,35.63246],[129.02067,35.63497],[128.98675,35.60912],[128.91505,35.64062],[128.87708,35.6337],[128.84473,35.58962],[128.80265,35.58915],[128.78553,35.56689],[128.70331,35.57801],[128.6876,35.59503],[128.58475,35.58646],[128.53663,35.62426],[128.5279,35.71274],[128.58052,35.73867],[128.61243,35.73852],[128.61978,35.70285],[128.68324,35.72145],[128.69549,35.75574],[128.68251,35.79015],[128.71752,35.80685],[128.70862,35.82638],[128.72508,35.83616],[128.72187,35.85695],[128.73857,35.8513],[128.7598,35.86607],[128.7598,35.90683],[128.73671,35.92957],[128.74621,35.97287],[128.72688,36.00323],[128.6956,36.01617],[128.61867,36.00641],[128.55333,35.96078],[128.52879,35.98038],[128.53438,35.93533],[128.50192,35.88693],[128.46838,35.89947],[128.47642,35.93444],[128.45416,35.94315],[128.39898,35.89993],[128.38351,35.85283],[128.45,35.84666],[128.48108,35.83013],[128.48276,35.81594],[128.47043,35.80592],[128.42083,35.80935],[128.38347,35.76009],[128.43182,35.7256],[128.43215,35.70489],[128.4122,35.69584],[128.3518,35.70402],[128.35823,35.68079],[128.40146,35.63902],[128.37175,35.61088],[128.35214,35.64458],[128.30599,35.65548],[128.26234,35.64274],[128.24221,35.65525],[128.22973,35.63946],[128.18524,35.65767],[128.1615,35.65379],[128.16368,35.67297],[128.20482,35.68392],[128.20197,35.71917],[128.15904,35.78367],[128.12886,35.7894],[128.12306,35.82243],[128.06979,35.8412],[128.01122,35.82908],[127.98175,35.85874],[127.92578,35.85562],[127.93308,35.864],[127.92022,35.89322],[127.88478,35.89311],[127.88224,35.92888],[127.91137,35.94918],[127.89322,35.98678],[127.8756,35.99691],[127.87679,36.02271],[127.96087,36.07034],[127.9668,36.11806],[127.98778,36.12882],[127.9972,36.15547],[127.97802,36.19811],[128.00975,36.20936],[128.03863,36.19416],[128.05815,36.20125],[128.0299,36.24001],[128.04735,36.25655],[128.02622,36.2679],[127.96017,36.25237],[127.90811,36.28551],[127.90429,36.30145],[127.88264,36.27375],[127.85212,36.27392],[127.84148,36.31],[127.89126,36.35966],[127.87572,36.39059],[127.8629,36.39297],[127.88271,36.42217],[127.87299,36.42428],[127.87609,36.48837],[127.90634,36.50694],[127.90246,36.52807],[127.87609,36.53702],[127.86042,36.56795],[127.82447,36.57091],[127.79615,36.59526],[127.821,36.61331],[127.8583,36.61353],[127.84675,36.63399],[127.87966,36.65677],[127.88965,36.62935],[127.92524,36.60281],[127.93921,36.64706],[127.92957,36.66877],[127.87429,36.68196],[127.89389,36.69438],[127.92892,36.69084],[127.93357,36.70649],[127.94953,36.70805],[127.95846,36.73684],[127.98685,36.71755],[128.01484,36.73019],[128.07038,36.7077],[128.06799,36.72223],[128.03232,36.74758],[128.05964,36.81677],[128.09007,36.79664],[128.13357,36.8328],[128.21537,36.812],[128.21125,36.8469],[128.23702,36.84535],[128.24183,36.87233],[128.28248,36.85596],[128.31645,36.81666],[128.36408,36.80222],[128.38334,36.81376],[128.42048,36.81151],[128.44903,36.84784],[128.448,36.86439],[128.42397,36.87653],[128.44175,36.92736],[128.51547,36.98682],[128.55473,36.99829],[128.57291,37.0208],[128.56564,37.03153],[128.58353,37.04373],[128.60679,37.0434],[128.60844,37.05281],[128.63292,37.0405],[128.6533,37.06551],[128.75376,37.02783],[128.76254,37.03786],[128.75655,37.06863],[128.76536,37.06403],[128.78028,37.09234],[128.80787,37.076],[128.82938,37.07846],[128.84687,37.05161],[128.89642,37.04452],[128.92332,37.09212],[129.0574,37.06505],[129.07042,37.08822],[129.09625,37.10041],[129.16614,37.06916],[129.18541,37.04172],[129.23801,37.03867],[129.22538,37.07372],[129.27202,37.11701],[129.29459,37.11437],[129.33951,37.14683],[129.36595,37.14463],[129.3796,37.09906],[129.43017,37.05832],[129.41508,37.05325],[129.40944,37.02786],[129.41918,36.89238]]],[[[130.91144,37.54132],[130.91955,37.54082],[130.90807,37.52834],[130.91758,37.51344],[130.90992,37.49537],[130.92083,37.48634],[130.88405,37.47055],[130.87505,37.45359],[130.80209,37.48402],[130.79369,37.52303],[130.90296,37.549],[130.91144,37.54132]]]]}},{"type":"Feature","properties":{"code":"38","name":"경남","slug":"gyeongnam","center":[128.36438,35.20402]},"geometry":{"type":"MultiPolygon","coordinates":[[[[128.35486,34.83885],[128.38527,34.81352],[128.38398,34.82952],[128.4407,34.82806],[128.44226,34.80356],[128.43115,34.80233],[128.44014,34.79468],[128.41958,34.79245],[128.43581,34.78057],[128.42377,34.76202],[128.39749,34.76544],[128.38366,34.79688],[128.36368,34.79649],[128.37827,34.79862],[128.37892,34.81541],[128.35734,34.82548],[128.33493,34.8181],[128.33807,34.84265],[128.34441,34.83145],[128.35486,34.83885]]],[[[128.03275,34.92003],[128.01004,34.8673],[128.02431,34.86582],[128.02181,34.88163],[128.04774,34.89697],[128.04068,34.8888],[128.06692,34.87433],[128.05334,34.85266],[128.08683,34.82802],[128.02413,34.84729],[128.00138,34.83597],[127.96929,34.84339],[127.96347,34.87136],[128.00286,34.91528],[128.03275,34.92003]]],[[[127.90385,34.86069],[127.95364,34.80501],[127.98971,34.83229],[128.0306,34.83432],[128.06665,34.81815],[128.05092,34.79632],[128.05984,34.79563],[128.04908,34.78097],[128.0564,34.74556],[128.03394,34.72386],[128.06022,34.70938],[128.01951,34.70245],[128.02615,34.71843],[128.01514,34.72417],[128.0072,34.71113],[127.98901,34.72041],[127.98437,34.70924],[127.95712,34.70938],[127.94414,34.74693],[127.94901,34.77755],[127.9038,34.76548],[127.90607,34.72772],[127.85745,34.72793],[127.85348,34.74751],[127.83544,34.75604],[127.85781,34.77615],[127.84454,34.77894],[127.80771,34.85331],[127.82845,34.87578],[127.82571,34.90265],[127.86211,34.90141],[127.8542,34.92758],[127.89121,34.94685],[127.92546,34.94067],[127.93071,34.92458],[127.92541,34.89165],[127.90126,34.88393],[127.90385,34.86069]]],[[[128.67367,34.78664],[128.63782,34.76389],[128.65251,34.7423],[128.68102,34.74011],[128.67614,34.72896],[128.67159,34.73907],[128.62743,34.73697],[128.6201,34.7304],[128.63819,34.70762],[128.57684,34.70255],[128.58474,34.72264],[128.60739,34.73182],[128.57567,34.73933],[128.57968,34.76225],[128.60105,34.76396],[128.59778,34.77704],[128.5554,34.76653],[128.56867,34.78654],[128.54302,34.77528],[128.53865,34.78747],[128.58417,34.79783],[128.59546,34.8276],[128.57859,34.84318],[128.58878,34.84698],[128.57302,34.85429],[128.56367,34.83286],[128.52402,34.83248],[128.52829,34.82142],[128.51068,34.80896],[128.50476,34.83538],[128.48213,34.84023],[128.47262,34.87211],[128.49686,34.907],[128.50663,34.90531],[128.50009,34.91103],[128.52755,34.92359],[128.56888,34.89845],[128.57703,34.91766],[128.5972,34.90257],[128.59937,34.91386],[128.62389,34.892],[128.58803,34.95254],[128.60624,34.96998],[128.6051,34.95792],[128.63256,34.96692],[128.6494,34.9573],[128.65399,34.9888],[128.66722,34.98822],[128.65955,34.99769],[128.68151,34.98984],[128.67317,34.99918],[128.68179,35.00705],[128.66744,35.00787],[128.67872,35.04075],[128.71999,35.01922],[128.70207,35.00615],[128.70657,34.9962],[128.69291,34.99573],[128.69707,34.97251],[128.72708,34.94606],[128.71492,34.93636],[128.71734,34.90056],[128.69487,34.87876],[128.70167,34.88622],[128.69766,34.87493],[128.70758,34.88141],[128.70984,34.86884],[128.72578,34.88783],[128.71963,34.89462],[128.73996,34.88488],[128.75251,34.89423],[128.73857,34.87842],[128.74384,34.86821],[128.72374,34.86486],[128.73508,34.8433],[128.71757,34.84965],[128.70179,34.83917],[128.70993,34.82844],[128.72065,34.83843],[128.73991,34.78696],[128.70952,34.79513],[128.70952,34.81236],[128.69046,34.797],[128.69223,34.8076],[128.67323,34.81413],[128.67367,34.78664]]],[[[128.46108,35.08965],[128.4762,35.07588],[128.36427,35.04689],[128.38222,35.03592],[128.3677,35.01682],[128.3889,35.01696],[128.38362,35.0356],[128.43813,35.04567],[128.45062,35.0518],[128.44522,35.06698],[128.46025,35.06315],[128.46893,35.07561],[128.48209,35.05242],[128.4591,35.04677],[128.50043,35.02076],[128.47815,34.99281],[128.46413,34.99783],[128.46664,34.98805],[128.40735,34.99406],[128.40952,34.98354],[128.44368,34.97767],[128.42477,34.9403],[128.43602,34.9315],[128.41774,34.9102],[128.42137,34.87296],[128.44554,34.88851],[128.45142,34.90292],[128.44045,34.91335],[128.47549,34.89013],[128.4663,34.87113],[128.45551,34.88202],[128.45228,34.84666],[128.43518,34.83818],[128.42459,34.84448],[128.39271,34.82947],[128.3696,34.85002],[128.41937,34.86547],[128.38559,34.86818],[128.37632,34.89113],[128.37438,34.86948],[128.35599,34.87111],[128.34908,34.8875],[128.34827,34.87309],[128.34068,34.8823],[128.32832,34.8759],[128.32846,34.88628],[128.31697,34.87979],[128.29797,34.8998],[128.35446,34.90802],[128.35064,34.92365],[128.33548,34.92144],[128.34661,34.93283],[128.33507,34.93642],[128.3405,34.94844],[128.32028,34.96292],[128.31994,34.94446],[128.29933,34.93592],[128.30031,34.91266],[128.2818,34.91638],[128.27288,34.89971],[128.25756,34.93002],[128.26767,34.93893],[128.2415,34.9439],[128.19698,34.9372],[128.19947,34.89347],[128.15618,34.90903],[128.13315,34.88819],[128.12082,34.90475],[128.10307,34.90015],[128.11114,34.90268],[128.10348,34.9191],[128.12159,34.92285],[128.08323,34.917],[128.08735,34.92645],[128.05474,34.92872],[128.02983,34.95779],[128.05236,34.97697],[128.03874,34.99665],[128.0505,35.01609],[128.03538,35.02356],[128.05412,35.08171],[128.03457,35.07743],[128.01983,35.02812],[128.00563,35.03343],[128.01946,35.04074],[128.00989,35.04991],[128.01411,35.03963],[127.98714,35.04653],[127.9761,35.03302],[127.99617,35.03771],[128.01841,35.01004],[128.00803,34.98228],[127.99747,34.99597],[127.98269,34.97583],[127.9644,34.99489],[127.9472,34.98361],[127.95271,34.97561],[127.94119,34.97912],[127.93162,34.99214],[127.94072,35.00419],[127.92273,35.0142],[127.91447,34.99258],[127.92351,34.9892],[127.90755,34.98303],[127.89739,34.95652],[127.84781,34.94692],[127.84076,34.96288],[127.80006,34.92305],[127.80327,34.93218],[127.75939,34.96678],[127.78677,35.01093],[127.76807,35.0504],[127.71612,35.08347],[127.69533,35.10538],[127.68868,35.13517],[127.62262,35.18494],[127.61525,35.25039],[127.577,35.29696],[127.57748,35.3089],[127.62074,35.33256],[127.6102,35.36592],[127.66047,35.41443],[127.67407,35.44572],[127.63669,35.45935],[127.63661,35.47821],[127.65311,35.48687],[127.62869,35.53598],[127.58486,35.55391],[127.61119,35.58389],[127.61302,35.60825],[127.63534,35.61848],[127.6201,35.64614],[127.66096,35.70991],[127.66582,35.76883],[127.71891,35.79685],[127.74445,35.84442],[127.76885,35.83831],[127.84175,35.86625],[127.85954,35.90649],[127.88506,35.90961],[127.89352,35.8868],[127.92022,35.89322],[127.93308,35.864],[127.92578,35.85562],[127.98175,35.85874],[128.01178,35.82893],[128.06979,35.8412],[128.12306,35.82243],[128.12886,35.7894],[128.15904,35.78367],[128.165,35.76349],[128.19809,35.73591],[128.20482,35.68392],[128.16368,35.67297],[128.16389,35.65307],[128.18524,35.65767],[128.22973,35.63946],[128.24351,35.65545],[128.26234,35.64274],[128.29807,35.65623],[128.34917,35.64645],[128.36463,35.61336],[128.3824,35.60654],[128.44648,35.63841],[128.50571,35.63927],[128.50755,35.67286],[128.52998,35.68301],[128.53663,35.62426],[128.58475,35.58646],[128.6876,35.59503],[128.70331,35.57801],[128.75814,35.56749],[128.78773,35.5675],[128.80166,35.5886],[128.82629,35.59678],[128.84473,35.58962],[128.88146,35.63548],[128.94115,35.63507],[128.98264,35.60871],[129.00274,35.62026],[129.02245,35.61422],[129.0189,35.58382],[128.97292,35.55606],[129.01088,35.52321],[129.05582,35.53227],[129.05263,35.51447],[129.10527,35.49647],[129.12177,35.46344],[129.16565,35.43212],[129.19698,35.43889],[129.21907,35.40768],[129.19359,35.38209],[129.19337,35.36124],[129.17614,35.3514],[129.11818,35.36903],[129.13459,35.35145],[129.10856,35.30458],[129.05836,35.29484],[129.0475,35.27421],[129.01348,35.27376],[128.98976,35.2317],[128.87906,35.21004],[128.87035,35.20156],[128.88168,35.1822],[128.87531,35.15117],[128.86739,35.16771],[128.79452,35.15854],[128.84317,35.10917],[128.82347,35.10188],[128.81452,35.09076],[128.8287,35.08997],[128.81151,35.07758],[128.78469,35.07772],[128.80259,35.09829],[128.7883,35.09837],[128.78949,35.11314],[128.77228,35.09895],[128.76296,35.10517],[128.7842,35.09755],[128.76379,35.05983],[128.7636,35.07751],[128.73571,35.08875],[128.74365,35.09987],[128.72891,35.08997],[128.71346,35.10683],[128.68847,35.10266],[128.70087,35.1166],[128.69093,35.14764],[128.67084,35.14248],[128.67776,35.12628],[128.66629,35.1185],[128.65891,35.13695],[128.64446,35.13561],[128.64717,35.1505],[128.62617,35.14836],[128.61875,35.13587],[128.62871,35.13256],[128.60708,35.1377],[128.6107,35.1623],[128.59314,35.17352],[128.58933,35.1994],[128.63223,35.21981],[128.58648,35.21068],[128.56449,35.18674],[128.59745,35.14227],[128.57216,35.13264],[128.60006,35.13208],[128.5859,35.12024],[128.59944,35.11919],[128.60254,35.10192],[128.62796,35.08317],[128.60273,35.07475],[128.63492,35.06882],[128.57362,35.05377],[128.59687,35.06968],[128.56245,35.06735],[128.56417,35.0824],[128.58316,35.09129],[128.54641,35.09299],[128.53772,35.1207],[128.51784,35.09797],[128.45142,35.10427],[128.46108,35.08965]]]]}},{"type":"Feature","properties":{"code":"39","name":"제주","slug":"jeju","center":[126.61109,33.37451]},"geometry":{"type":"MultiPolygon","coordinates":[[[[126.90175,33.51527],[126.9134,33.50323],[126.90241,33.48117],[126.92483,33.47204],[126.92327,33.45553],[126.93551,33.47846],[126.94535,33.4596],[126.92259,33.44941],[126.93651,33.42917],[126.92937,33.42259],[126.91613,33.43397],[126.90647,33.3915],[126.87132,33.37219],[126.83576,33.30889],[126.77781,33.30675],[126.74278,33.27769],[126.65819,33.27388],[126.59989,33.23449],[126.57784,33.24484],[126.56752,33.23266],[126.56097,33.24298],[126.56425,33.23473],[126.52089,33.24092],[126.47547,33.22311],[126.45706,33.24117],[126.40877,33.24458],[126.36668,33.22892],[126.32775,33.23176],[126.32773,33.24079],[126.29796,33.22269],[126.29463,33.19678],[126.27215,33.19407],[126.23356,33.23492],[126.18226,33.25975],[126.16087,33.2908],[126.16869,33.34539],[126.25015,33.40101],[126.2631,33.43684],[126.29963,33.44716],[126.31281,33.46978],[126.45156,33.49731],[126.49418,33.52091],[126.63451,33.53604],[126.64465,33.55563],[126.6671,33.54283],[126.76543,33.56597],[126.82756,33.55941],[126.84069,33.53367],[126.89281,33.52689],[126.90175,33.51527]]]]}}]}